NORAD_CAT_ID,OBJECT_NAME,OBJECT_TYPE,EPOCH,MEAN_MOTION,ECCENTRICITY,INCLINATION,RA_OF_ASC_NODE,ARG_OF_PERICENTER,MEAN_ANOMALY,BSTAR,MEAN_MOTION_DOT,MEAN_MOTION_DDOT,TLE_LINE0,TLE_LINE1,TLE_LINE2,SEMIMAJOR_AXIS,PERIOD,APOGEE,PERIGEE,DECAYED
52120.0,STARLINK-3534,PAYLOAD,2023-05-25 19:47:27,15.08845749,8.15e-05,53.2169,332.983,96.0755,264.033,0.00021111,3.074e-05,0.0,0 STARLINK-3534,1 52120U 22029AJ  23145.82462370  .00003074  00000-0  21111-3 0  9995,2 52120  53.2169 332.9830 0000815  96.0755 264.0330 15.08845749 66980,6917.863,95.437,540.292,539.164,0.0
52120.0,STARLINK-3534,PAYLOAD,2023-05-26 18:02:51,15.08840819,9.29e-05,53.217,328.8199,95.3365,264.7733,5.723e-05,6.23e-06,0.0,0 STARLINK-3534,1 52120U 22029AJ  23146.75198677  .00000623  00000-0  57230-4 0  9993,2 52120  53.2170 328.8199 0000929  95.3365 264.7733 15.08840819 67123,6917.878,95.438,540.386,539.1,0.0
52120.0,STARLINK-3534,PAYLOAD,2023-05-26 21:13:37,15.08841963,9.61e-05,53.2173,328.225,92.2369,267.8733,6.8984e-05,8.1e-06,0.0,0 STARLINK-3534,1 52120U 22029AJ  23146.88446602  .00000810  00000-0  68984-4 0  9997,2 52120  53.2173 328.2250 0000961  92.2369 267.8733 15.08841963 67141,6917.874,95.437,540.404,539.075,0.0
52120.0,STARLINK-3534,PAYLOAD,2023-05-27 19:29:02,15.0880614,0.0001048,53.2173,324.0626,102.652,257.4589,0.00063586,9.837e-05,0.0,0 STARLINK-3534,1 52120U 22029AJ  23147.81183904  .00009837  00000-0  63586-3 0  9994,2 52120  53.2173 324.0626 0001048 102.6520 257.4589 15.08806140 67281,6917.984,95.44,540.574,539.124,0.0
52120.0,STARLINK-3534,PAYLOAD,2023-05-28 05:01:20,15.08842474,8.01e-05,53.2172,322.2785,88.1774,271.931,0.00013183,1.811e-05,0.0,0 STARLINK-3534,1 52120U 22029AJ  23148.20926792  .00001811  00000-0  13183-3 0  9990,2 52120  53.2172 322.2785 0000801  88.1774 271.9310 15.08842474 67341,6917.873,95.437,540.292,539.184,0.0
52120.0,STARLINK-3534,PAYLOAD,2023-05-28 11:22:53,15.08844016,8.04e-05,53.2172,321.089,87.7706,272.3378,9.9327e-05,1.294e-05,0.0,0 STARLINK-3534,1 52120U 22029AJ  23148.47422780  .00001294  00000-0  99327-4 0  9997,2 52120  53.2172 321.0890 0000804  87.7706 272.3378 15.08844016 67385,6917.868,95.437,540.289,539.177,0.0
52120.0,STARLINK-3534,PAYLOAD,2023-05-28 17:44:25,15.0884935,8.18e-05,53.217,319.9,86.3971,273.7114,0.00013914,1.928e-05,0.0,0 STARLINK-3534,1 52120U 22029AJ  23148.73918305  .00001928  00000-0  13914-3 0  9990,2 52120  53.2170 319.9000 0000818  86.3971 273.7114 15.08849350 67420,6917.852,95.437,540.283,539.151,0.0
52120.0,STARLINK-3534,PAYLOAD,2023-05-29 14:24:26,15.08840668,7.02e-05,53.2186,316.0329,103.4768,256.6302,0.00010485,1.381e-05,0.0,0 STARLINK-3534,1 52120U 22029AJ  23149.60030643  .00001381  00000-0  10485-3 0  9990,2 52120  53.2186 316.0329 0000702 103.4768 256.6302 15.08840668 67552,6917.878,95.438,540.229,539.258,0.0
52120.0,STARLINK-3534,PAYLOAD,2023-05-29 17:35:12,15.08833614,4.94e-05,53.2177,315.4376,109.5467,250.5579,0.00019679,2.845e-05,0.0,0 STARLINK-3534,1 52120U 22029AJ  23149.73278873  .00002845  00000-0  19679-3 0  9993,2 52120  53.2177 315.4376 0000494 109.5467 250.5579 15.08833614 67572,6917.9,95.438,540.107,539.423,0.0
52120.0,STARLINK-3534,PAYLOAD,2023-05-29 20:46:00,15.08773549,0.0001149,53.2178,314.8429,116.7885,243.3225,0.0010834,0.00016965,0.0,0 STARLINK-3534,1 52120U 22029AJ  23149.86528693  .00016965  00000-0  10834-2 0  9996,2 52120  53.2178 314.8429 0001149 116.7885 243.3225 15.08773549 67597,6918.084,95.442,540.743,539.154,0.0
52120.0,STARLINK-3534,PAYLOAD,2023-05-30 11:04:27,15.08838985,9.24e-05,53.2171,312.1674,90.2476,269.8622,7.829e-06,-1.63e-06,0.0,0 STARLINK-3534,1 52120U 22029AJ  23150.46143045 -.00000163  00000-0  78290-5 0  9995,2 52120  53.2171 312.1674 0000924  90.2476 269.8622 15.08838985 67685,6917.883,95.438,540.388,539.109,0.0
52120.0,STARLINK-3534,PAYLOAD,2023-05-30 15:50:37,15.08824725,9.11e-05,53.218,311.2742,108.7499,251.3592,0.00023778,3.497e-05,0.0,0 STARLINK-3534,1 52120U 22029AJ  23150.66015437  .00003497  00000-0  23778-3 0  9991,2 52120  53.2180 311.2742 0000911 108.7499 251.3592 15.08824725 67710,6917.927,95.439,540.422,539.162,0.0
52120.0,STARLINK-3534,PAYLOAD,2023-05-31 14:06:00,15.0883795,9.49e-05,53.2176,307.1096,108.6475,251.462,6.2232e-05,7.03e-06,0.0,0 STARLINK-3534,1 52120U 22029AJ  23151.58750924  .00000703  00000-0  62232-4 0  9996,2 52120  53.2176 307.1096 0000949 108.6475 251.4620 15.08837950 67857,6917.887,95.438,540.408,539.095,0.0
52120.0,STARLINK-3534,PAYLOAD,2023-05-31 17:16:46,15.08840109,7.06e-05,53.2172,306.5179,79.467,280.6402,0.0001308,1.795e-05,0.0,0 STARLINK-3534,1 52120U 22029AJ  23151.71998691  .00001795  00000-0  13080-3 0  9994,2 52120  53.2172 306.5179 0000706  79.4670 280.6402 15.08840109 67875,6917.88,95.438,540.233,539.257,0.0
52120.0,STARLINK-3534,PAYLOAD,2023-06-01 10:46:01,15.08836114,8.19e-05,53.2175,303.2488,86.4487,273.6599,7.5061e-05,9.07e-06,0.0,0 STARLINK-3534,1 52120U 22029AJ  23152.44863277  .00000907  00000-0  75061-4 0  9998,2 52120  53.2175 303.2488 0000819  86.4487 273.6599 15.08836114 67986,6917.892,95.438,540.324,539.191,0.0
52120.0,STARLINK-3534,PAYLOAD,2023-06-02 13:47:35,15.0883777,9.42e-05,53.2181,298.1977,116.905,243.2038,1.2628e-05,-8.7e-07,0.0,0 STARLINK-3534,1 52120U 22029AJ  23153.57471650 -.00000087  00000-0  12628-4 0  9993,2 52120  53.2181 298.1977 0000942 116.9050 243.2038 15.08837770 68150,6917.887,95.438,540.404,539.101,0.0
52120.0,STARLINK-3534,PAYLOAD,2023-06-02 18:33:44,15.08843621,9.12e-05,53.2179,297.3048,103.7188,256.3906,-1.3623e-05,-5.05e-06,0.0,0 STARLINK-3534,1 52120U 22029AJ  23153.77343397 -.00000505  00000-0 -13623-4 0  9993,2 52120  53.2179 297.3048 0000912 103.7188 256.3906 15.08843621 68184,6917.869,95.437,540.365,539.103,0.0
52120.0,STARLINK-3534,PAYLOAD,2023-06-03 02:30:40,15.08834633,8.04e-05,53.2171,295.817,103.4055,256.7027,3.8646e-05,3.27e-06,0.0,0 STARLINK-3534,1 52120U 22029AJ  23154.10463859  .00000327  00000-0  38646-4 0  9999,2 52120  53.2171 295.8170 0000804 103.4055 256.7027 15.08834633 68232,6917.897,95.438,540.318,539.206,0.0
52120.0,STARLINK-3534,PAYLOAD,2023-06-03 13:38:22,15.08837213,9.28e-05,53.2185,293.7331,98.4262,261.6836,4.9914e-05,5.07e-06,0.0,0 STARLINK-3534,1 52120U 22029AJ  23154.56831846  .00000507  00000-0  49914-4 0  9994,2 52120  53.2185 293.7331 0000928  98.4262 261.6836 15.08837213 68301,6917.889,95.438,540.396,539.112,0.0
52120.0,STARLINK-3534,PAYLOAD,2023-06-03 16:49:08,15.08841054,8.41e-05,53.2174,293.1384,99.3666,260.7421,4.297e-05,3.96e-06,0.0,0 STARLINK-3534,1 52120U 22029AJ  23154.70079632  .00000396  00000-0  42970-4 0  9998,2 52120  53.2174 293.1384 0000841  99.3666 260.7421 15.08841054 68323,6917.877,95.437,540.324,539.16,0.0
52120.0,STARLINK-3534,PAYLOAD,2023-06-04 15:04:32,15.08839456,8.79e-05,53.2177,288.9745,93.7528,266.3565,8.4492e-05,1.057e-05,0.0,0 STARLINK-3534,1 52120U 22029AJ  23155.62815791  .00001057  00000-0  84492-4 0  9994,2 52120  53.2177 288.9745 0000879  93.7528 266.3565 15.08839456 68464,6917.882,95.438,540.355,539.139,0.0
52120.0,STARLINK-3534,PAYLOAD,2023-06-04 16:39:55,15.08841696,8.09e-05,53.2174,288.6768,91.3013,268.8071,0.00011173,1.491e-05,0.0,0 STARLINK-3534,1 52120U 22029AJ  23155.69439578  .00001491  00000-0  11173-3 0  9993,2 52120  53.2174 288.6768 0000809  91.3013 268.8071 15.08841696 68478,6917.875,95.437,540.3,539.181,0.0
52120.0,STARLINK-3534,PAYLOAD,2023-06-05 02:12:14,15.08841702,7.82e-05,53.217,286.8924,86.8857,273.2224,0.00010527,1.388e-05,0.0,0 STARLINK-3534,1 52120U 22029AJ  23156.09183579  .00001388  00000-0  10527-3 0  9992,2 52120  53.2170 286.8924 0000782  86.8857 273.2224 15.08841702 68538,6917.875,95.437,540.281,539.199,0.0
52120.0,STARLINK-3534,PAYLOAD,2023-06-05 13:19:56,15.08844277,8.8e-05,53.217,284.8111,83.5763,276.5329,0.0001189,1.605e-05,0.0,0 STARLINK-3534,1 52120U 22029AJ  23156.55551408  .00001605  00000-0  11890-3 0  9999,2 52120  53.2170 284.8111 0000880  83.5763 276.5329 15.08844277 68603,6917.867,95.437,540.341,539.124,0.0
52120.0,STARLINK-3534,PAYLOAD,2023-06-05 14:55:19,15.08847111,9.17e-05,53.2166,284.5135,85.7011,274.4086,0.00012512,1.704e-05,0.0,0 STARLINK-3534,1 52120U 22029AJ  23156.62175194  .00001704  00000-0  12512-3 0  9993,2 52120  53.2166 284.5135 0000917  85.7011 274.4086 15.08847111 68610,6917.859,95.437,540.358,539.089,0.0
52120.0,STARLINK-3534,PAYLOAD,2023-06-06 08:24:34,15.0884275,6.4e-05,53.2158,281.2423,70.5137,289.5925,2.0561e-05,4e-07,0.0,0 STARLINK-3534,1 52120U 22029AJ  23157.35039654  .00000040  00000-0  20561-4 0  9990,2 52120  53.2158 281.2423 0000640  70.5137 289.5925 15.08842750 68724,6917.872,95.437,540.18,539.294,0.0
52120.0,STARLINK-3534,PAYLOAD,2023-06-06 11:35:20,15.08841653,7.73e-05,53.2166,280.6473,82.4137,277.6943,-2.6207e-05,-7.05e-06,0.0,0 STARLINK-3534,1 52120U 22029AJ  23157.48287829 -.00000705  00000-0 -26207-4 0  9996,2 52120  53.2166 280.6473 0000773  82.4137 277.6943 15.08841653 68741,6917.875,95.437,540.275,539.206,0.0
52120.0,STARLINK-3534,PAYLOAD,2023-06-06 17:56:52,15.08844028,8.39e-05,53.2169,279.4571,95.6478,264.461,8.0125e-05,9.88e-06,0.0,0 STARLINK-3534,1 52120U 22029AJ  23157.74783207  .00000988  00000-0  80125-4 0  9996,2 52120  53.2169 279.4571 0000839  95.6478 264.4610 15.08844028 68784,6917.868,95.437,540.313,539.153,0.0
52120.0,STARLINK-3534,PAYLOAD,2023-06-07 08:15:21,15.08836201,9.99e-05,53.2155,276.7826,93.5792,266.5314,-4.2334e-06,-3.55e-06,0.0,0 STARLINK-3534,1 52120U 22029AJ  23158.34399946 -.00000355  00000-0 -42334-5 0  9997,2 52120  53.2155 276.7826 0000999  93.5792 266.5314 15.08836201 68873,6917.892,95.438,540.448,539.066,0.0
52120.0,STARLINK-3534,PAYLOAD,2023-06-07 17:47:40,15.08839651,0.0001015,53.216,274.9966,105.1257,254.9848,1.1235e-05,-1.09e-06,0.0,0 STARLINK-3534,1 52120U 22029AJ  23158.74143700 -.00000109  00000-0  11235-4 0  9997,2 52120  53.2160 274.9966 0001015 105.1257 254.9848 15.08839651 68932,6917.881,95.438,540.449,539.044,0.0
